GLOBALSTAR M057         
1 25943U 99058A   25298.84706434 -.00000077  00000+0  14226-3 0  9998
2 25943  52.0002 337.3911 0002236 280.0736  79.9861 12.24827818182947
GLOBALSTAR M059         
1 25944U 99058B   25298.95463983 -.00000110  00000+0 -29277-3 0  9991
2 25944  52.0010 213.4026 0000608  68.8493  11.8492 11.99986727589741
GLOBALSTAR M056         
1 25945U 99058C   25298.93067561 -.00000038  00000+0  57206-3 0  9993
2 25945  51.9954 212.0750 0001641  69.5805   9.4838 12.04779873178389
GLOBALSTAR M031         
1 25946U 99058D   25298.78478876 -.00000055  00000+0  36465-3 0  9995
2 25946  51.9944  96.9778 0002349  91.7452  15.8402 12.16041294180438
GLOBALSTAR M039         
1 25961U 99062A   25298.97024352 -.00000028  00000+0  42358-3 0  9992
2 25961  51.9839 230.3731 0002112 289.9358  70.1280 12.62334569196734
GLOBALSTAR M034         
1 25962U 99062B   25298.99467885 -.00000033  00000+0  76045-3 0  9993
2 25962  51.9905  31.3600 0013554 288.0108 243.0692 11.79449735153828
GLOBALSTAR M029         
1 25963U 99062C   25298.70733052 -.00000100  00000+0 -16879-3 0  9990
2 25963  51.9782 101.9930 0002821  37.0488 336.3938 11.99902745184796
GLOBALSTAR M061         
1 25964U 99062D   25298.93448530 -.00000086  00000+0 -95579-4 0  9998
2 25964  51.9785 217.2892 0005214 207.5150 230.0970 11.76777251136573
